{
  "links" : {
    "next" : "https://api.nasa.gov/neo/rest/v1/feed?start_date=2012-03-09&end_date=2012-03-09&detailed=true&api_key=t0TVs3DtDT2H8Oy2Zy8m2eVrNsAVKAexjcZXUckd",
    "prev" : "https://api.nasa.gov/neo/rest/v1/feed?start_date=2012-03-07&end_date=2012-03-07&detailed=true&api_key=t0TVs3DtDT2H8Oy2Zy8m2eVrNsAVKAexjcZXUckd",
    "self" : "https://api.nasa.gov/neo/rest/v1/feed?start_date=2012-03-08&end_date=2012-03-08&detailed=true&api_key=t0TVs3DtDT2H8Oy2Zy8m2eVrNsAVKAexjcZXUckd"
  },
  "element_count" : 6,
  "near_earth_objects" : {
    "2012-03-08" : [ {
      "links" : {
        "self" : "https://api.nasa.gov/neo/rest/v1/neo/3601274?api_key=t0TVs3DtDT2H8Oy2Zy8m2eVrNsAVKAexjcZXUckd"
      },
      "neo_reference_id" : "3601274",
      "name" : "(2012 EF5)",
      "nasa_jpl_url" : "http://ssd.jpl.nasa.gov/sbdb.cgi?sstr=3601274",
      "absolute_magnitude_h" : 21.3,
      "estimated_diameter" : {
        "kilometers" : {
          "estimated_diameter_min" : 0.1460679643,
          "estimated_diameter_max" : 0.3266178974
        },
        "meters" : {
          "estimated_diameter_min" : 146.0679642714,
          "estimated_diameter_max" : 326.6178974458
        },
        "miles" : {
          "estimated_diameter_min" : 0.090762397,
          "estimated_diameter_max" : 0.2029508896
        },
        "feet" : {
          "estimated_diameter_min" : 479.2256199,
          "estimated_diameter_max" : 1071.581062656
        }
      },
      "is_potentially_hazardous_asteroid" : false,
      "close_approach_data" : [ {
        "close_approach_date" : "2012-03-08",
        "epoch_date_close_approach" : 1331193600000,
        "relative_velocity" : {
          "kilometers_per_second" : "24.8555205736",
          "kilometers_per_hour" : "89479.8740648023",
          "miles_per_hour" : "55599.3139709879"
        },
        "miss_distance" : {
          "astronomical" : "0.1110784504",
          "lunar" : "43.2095146179",
          "kilometers" : "16617100",
          "miles" : "10325387"
        },
        "orbiting_body" : "Earth"
      } ],
      "orbital_data" : {
        "orbit_id" : "6",
        "orbit_determination_date" : "2017-04-06 08:50:36",
        "orbit_uncertainty" : "8",
        "minimum_orbit_intersection" : ".0514593",
        "jupiter_tisserand_invariant" : "4.882",
        "epoch_osculation" : "2456002.5",
        "eccentricity" : ".2611591222616669",
        "semi_major_axis" : "1.223268770274631",
        "inclination" : "47.82077996239578",
        "ascending_node_longitude" : "164.0617182492326",
        "orbital_period" : "494.1755559806493",
        "perihelion_distance" : ".9038009719395997",
        "perihelion_argument" : "69.84232966935774",
        "aphelion_distance" : "1.542736568609662",
        "perihelion_time" : "2456056.756192700588",
        "mean_anomaly" : "320.4751203578825",
        "mean_motion" : ".7284860524628959",
        "equinox" : "J2000"
      }
    }, {
      "links" : {
        "self" : "https://api.nasa.gov/neo/rest/v1/neo/3601924?api_key=t0TVs3DtDT2H8Oy2Zy8m2eVrNsAVKAexjcZXUckd"
      },
      "neo_reference_id" : "3601924",
      "name" : "(2012 FO52)",
      "nasa_jpl_url" : "http://ssd.jpl.nasa.gov/sbdb.cgi?sstr=3601924",
      "absolute_magnitude_h" : 22.6,
      "estimated_diameter" : {
        "kilometers" : {
          "estimated_diameter_min" : 0.0802703167,
          "estimated_diameter_max" : 0.1794898848
        },
        "meters" : {
          "estimated_diameter_min" : 80.2703167283,
          "estimated_diameter_max" : 179.4898847799
        },
        "miles" : {
          "estimated_diameter_min" : 0.049877647,
          "estimated_diameter_max" : 0.1115298092
        },
        "feet" : {
          "estimated_diameter_min" : 263.3540659348,
          "estimated_diameter_max" : 588.8775935812
        }
      },
      "is_potentially_hazardous_asteroid" : false,
      "close_approach_data" : [ {
        "close_approach_date" : "2012-03-08",
        "epoch_date_close_approach" : 1331193600000,
        "relative_velocity" : {
          "kilometers_per_second" : "7.4328318546",
          "kilometers_per_hour" : "26758.1946765619",
          "miles_per_hour" : "16626.5015755559"
        },
        "miss_distance" : {
          "astronomical" : "0.1067254524",
          "lunar" : "41.5162010193",
          "kilometers" : "15965901",
          "miles" : "9920751"
        },
        "orbiting_body" : "Earth"
      } ],
      "orbital_data" : {
        "orbit_id" : "12",
        "orbit_determination_date" : "2017-04-06 08:50:18",
        "orbit_uncertainty" : "8",
        "minimum_orbit_intersection" : ".0759582",
        "jupiter_tisserand_invariant" : "3.641",
        "epoch_osculation" : "2456017.5",
        "eccentricity" : ".4867264314954604",
        "semi_major_axis" : "2.041118801592",
        "inclination" : "3.721822296908015",
        "ascending_node_longitude" : "195.7444665673348",
        "orbital_period" : "1065.125670395404",
        "perihelion_distance" : "1.047652331034835",
        "perihelion_argument" : "309.7472108012863",
        "aphelion_distance" : "3.034585272149165",
        "perihelion_time" : "2455978.070867734573",
        "mean_anomaly" : "13.32658484353714",
        "mean_motion" : ".3379882862708193",
        "equinox" : "J2000"
      }
    }, {
      "links" : {
        "self" : "https://api.nasa.gov/neo/rest/v1/neo/3508146?api_key=t0TVs3DtDT2H8Oy2Zy8m2eVrNsAVKAexjcZXUckd"
      },
      "neo_reference_id" : "3508146",
      "name" : "(2010 DO)",
      "nasa_jpl_url" : "http://ssd.jpl.nasa.gov/sbdb.cgi?sstr=3508146",
      "absolute_magnitude_h" : 21.7,
      "estimated_diameter" : {
        "kilometers" : {
          "estimated_diameter_min" : 0.1214940408,
          "estimated_diameter_max" : 0.2716689341
        },
        "meters" : {
          "estimated_diameter_min" : 121.4940407996,
          "estimated_diameter_max" : 271.6689340891
        },
        "miles" : {
          "estimated_diameter_min" : 0.0754928736,
          "estimated_diameter_max" : 0.1688071972
        },
        "feet" : {
          "estimated_diameter_min" : 398.6025088171,
          "estimated_diameter_max" : 891.3023057169
        }
      },
      "is_potentially_hazardous_asteroid" : true,
      "close_approach_data" : [ {
        "close_approach_date" : "2012-03-08",
        "epoch_date_close_approach" : 1331193600000,
        "relative_velocity" : {
          "kilometers_per_second" : "19.6848496637",
          "kilometers_per_hour" : "70865.4587894654",
          "miles_per_hour" : "44033.0402128209"
        },
        "miss_distance" : {
          "astronomical" : "0.2133392663",
          "lunar" : "82.9889755249",
          "kilometers" : "31915100",
          "miles" : "19831124"
        },
        "orbiting_body" : "Earth"
      } ],
      "orbital_data" : {
        "orbit_id" : "15",
        "orbit_determination_date" : "2017-04-06 08:58:18",
        "orbit_uncertainty" : "1",
        "minimum_orbit_intersection" : ".0175511",
        "jupiter_tisserand_invariant" : "3.952",
        "epoch_osculation" : "2458000.5",
        "eccentricity" : ".7457495070819262",
        "semi_major_axis" : "1.612808932095149",
        "inclination" : "11.93390056675077",
        "ascending_node_longitude" : "154.4962738331342",
        "orbital_period" : "748.1226557000565",
        "perihelion_distance" : ".4100574659678637",
        "perihelion_argument" : "116.7608312939288",
        "aphelion_distance" : "2.815560398222434",
        "perihelion_time" : "2458290.151947318783",
        "mean_anomaly" : "220.6181750542141",
        "mean_motion" : ".4812045154054714",
        "equinox" : "J2000"
      }
    } ]
  }
}